STARLINK-36216          
1 67217U 25304AB  26012.85913991  .00091223  00000+0  14666-2 0  9994
2 67217  69.9997 320.3478 0003773 270.5106  89.5649 15.52555092  5399
STARLINK-36211          
1 67218U 25304AC  26012.92322522  .00069763  00000+0  11261-2 0  9999
2 67218  69.9997 320.1697 0003787 271.0701  89.0052 15.52532630  5377
DISKSAT C               
1 67219U 25305A   26012.66253284  .00009830  00000+0  67236-3 0  9993
2 67219  45.0014 187.1105 0002054  13.7028 346.3902 15.06375821  3846
DISKSAT B               
1 67220U 25305B   26012.86234403  .00007032  00000+0  48667-3 0  9998
2 67220  45.0012 186.0648 0001747  19.6825 340.4117 15.06307112  3878
DISKSAT D               
1 67221U 25305C   26012.73046391  .00008751  00000+0  60204-3 0  9992
2 67221  45.0015 186.7713 0002111  28.8392 331.2599 15.06274906  3853
DISKSAT A               
1 67222U 25305D   26012.86424501  .00007411  00000+0  51293-3 0  9990
2 67222  45.0017 186.0789 0001980  38.1189 321.9826 15.06236773  3863
ELECTRON KICK STAGE R/B 
1 67223U 25305E   26012.83434667  .00108325  11523-4  93090-3 0  9996
2 67223  44.9838 176.6143 0163358 287.9231  70.3911 15.53589754  3987
TJS-23                  
1 67226U 25306A   26012.03174400  .00000039  00000+0  00000+0 0  9999
2 67226   5.9431 298.2948 0000340  53.0459 307.1271  1.00269497   326
CZ-5 R/B                
1 67227U 25306B   26012.07589392  .00008109  00000+0  22316-2 0  9997
2 67227  16.2838 291.5585 7578092 192.8297 122.4088  1.92501043   454
QPS-SAR-15              
1 67228U 25307A   26012.64638982  .00004804  00000+0  42183-3 0  9995
2 67228  42.0081   1.0816 0007886  51.7995 308.3539 14.97353356  3351
ELECTRON R/B            
1 67229U 25307B   26012.36899268  .00986679  37501-3  18026-2 0  9998
2 67229  41.9928 349.1807 0152080  38.4053 322.7515 15.82791248  3467
ELECTRON KICK STAGE R/B 
1 67230U 25307C   26012.63433803  .02628200  80997-5  18597-2 0  9996
2 67230  41.9993 345.9431 0093547  74.7647 286.3537 16.05866904  1928
